ONEWEB-0158             
1 48054U 21025N   25268.25880476 -.00000451  00000+0 -12705-2 0  9992
2 48054  87.9053  12.8405 0001443 100.3445 259.7847 13.13470757218858
ONEWEB-0157             
1 48055U 21025P   25268.28421114  .00000376  00000+0  99367-3 0  9990
2 48055  87.9048  12.8435 0002109 108.5610 251.5748 13.13471171218794
ONEWEB-0162             
1 48056U 21025Q   25268.26037888  .00000024  00000+0  29730-4 0  9998
2 48056  87.9053  12.8481 0001819 101.0422 259.0912 13.13471427218765
ONEWEB-0155             
1 48057U 21025R   25268.26727033  .00000241  00000+0  62453-3 0  9996
2 48057  87.9048  12.8534 0001738 107.4949 252.6371 13.13472664218901
ONEWEB-0149             
1 48058U 21025S   25268.28928379  .00000331  00000+0  87131-3 0  9995
2 48058  87.9048  12.8434 0001904  95.6384 264.4962 13.13472105218713
ONEWEB-0148             
1 48059U 21025T   25268.25203577 -.00000392  00000+0 -11084-2 0  9991
2 48059  87.9046  12.8749 0002373  94.6562 265.4838 13.13470674218834
ONEWEB-0160             
1 48060U 21025U   25268.26896274  .00000209  00000+0  53681-3 0  9991
2 48060  87.9043  12.8687 0001142  77.8462 282.2795 13.13472368218784
ONEWEB-0163             
1 48061U 21025V   25268.25373337 -.00000179  00000+0 -52564-3 0  9998
2 48061  87.9050  12.8529 0002005 107.5794 252.5554 13.13472296218903
